{"type": "FeatureCollection", "features": [ {"type": "Feature", "properties": {"norad_id": 66840, "name": "STARLINK-35837", "group": "last-30-days", "lat": 4.766325558246321, "lon": 160.07076471970652, "alt_km": 411.21736536008757, "timestamp": "2025-12-27T08:36:17.078450+00:00", "meta": {"OBJECT_NAME": "STARLINK-35837", "OBJECT_ID": "2025-280V", "EPOCH": "2025-12-27T04:00:01.998720", "MEAN_MOTION": 15.52752751, "ECCENTRICITY": 0.0003747, "INCLINATION": 70.0008, "RA_OF_ASC_NODE": 158.8558, "ARG_OF_PERICENTER": 277.8087, "MEAN_ANOMALY": 95.378, "EPHEMERIS_TYPE": 0, "CLASSIFICATION_TYPE": "U", "NORAD_CAT_ID": 66840, "ELEMENT_SET_NO": 999, "REV_AT_EPOCH": 521, "BSTAR": -0.011408, "MEAN_MOTION_DOT": -0.00652785, "MEAN_MOTION_DDOT": 0}, "tle": {"line1": "1 66840U 25280V   25361.16668980 -.00652785  00000+0 -11408-1 0  9991", "line2": "2 66840  70.0008 158.8558 0003747 277.8087  95.3780 15.52752751  5211"}}, "geometry": {"type": "Point", "coordinates": [160.07076471970652, 4.766325558246321]}}, {"type": "Feature", "properties": {"norad_id": 66841, "name": "STARLINK-35715", "group": "last-30-days", "lat": 6.5665240020261955, "lon": 160.7319910831081, "alt_km": 411.2699862997388, "timestamp": "2025-12-27T08:36:17.078460+00:00", "meta": {"OBJECT_NAME": "STARLINK-35715", "OBJECT_ID": "2025-280W", "EPOCH": "2025-12-27T04:00:01.998720", "MEAN_MOTION": 15.52736859, "ECCENTRICITY": 0.0003643, "INCLINATION": 70.0007, "RA_OF_ASC_NODE": 158.8544, "ARG_OF_PERICENTER": 272.9976, "MEAN_ANOMALY": 102.1137, "EPHEMERIS_TYPE": 0, "CLASSIFICATION_TYPE": "U", "NORAD_CAT_ID": 66841, "ELEMENT_SET_NO": 999, "REV_AT_EPOCH": 521, "BSTAR": -0.01093, "MEAN_MOTION_DOT": -0.00627048, "MEAN_MOTION_DDOT": 0}, "tle": {"line1": "1 66841U 25280W   25361.16668980 -.00627048  00000+0 -10930-1 0  9995", "line2": "2 66841  70.0007 158.8544 0003643 272.9976 102.1137 15.52736859  5218"}}, "geometry": {"type": "Point", "coordinates": [160.7319910831081, 6.5665240020261955]}}, {"type": "Feature", "properties": {"norad_id": 66842, "name": "STARLINK-35769", "group": "last-30-days", "lat": 8.344519065803947, "lon": 161.38794252671602, "alt_km": 411.1291494901852, "timestamp": "2025-12-27T08:36:17.078473+00:00", "meta": {"OBJECT_NAME": "STARLINK-35769", "OBJECT_ID": "2025-280X", "EPOCH": "2025-12-27T04:00:01.998720", "MEAN_MOTION": 15.52520357, "ECCENTRICITY": 0.0003261, "INCLINATION": 70.0007, "RA_OF_ASC_NODE": 158.8508, "ARG_OF_PERICENTER": 269.5929, "MEAN_ANOMALY": 107.483, "EPHEMERIS_TYPE": 0, "CLASSIFICATION_TYPE": "U", "NORAD_CAT_ID": 66842, "ELEMENT_SET_NO": 999, "REV_AT_EPOCH": 521, "BSTAR": -0.00083288, "MEAN_MOTION_DOT": -0.00051081, "MEAN_MOTION_DDOT": 0}, "tle": {"line1": "1 66842U 25280X   25361.16668980 -.00051081  00000+0 -83288-3 0  9992", "line2": "2 66842  70.0007 158.8508 0003261 269.5929 107.4830 15.52520357  5217"}}, "geometry": {"type": "Point", "coordinates": [161.38794252671602, 8.344519065803947]}}, {"type": "Feature", "properties": {"norad_id": 66843, "name": "STARLINK-35997", "group": "last-30-days", "lat": 11.939946520635143, "lon": 162.7378678421672, "alt_km": 410.6182147351583, "timestamp": "2025-12-27T08:36:17.078483+00:00", "meta": {"OBJECT_NAME": "STARLINK-35997", "OBJECT_ID": "2025-280Y", "EPOCH": "2025-12-27T04:00:01.998720", "MEAN_MOTION": 15.52520774, "ECCENTRICITY": 0.0003382, "INCLINATION": 70.0007, "RA_OF_ASC_NODE": 158.8459, "ARG_OF_PERICENTER": 273.1652, "MEAN_ANOMALY": 107.7414, "EPHEMERIS_TYPE": 0, "CLASSIFICATION_TYPE": "U", "NORAD_CAT_ID": 66843, "ELEMENT_SET_NO": 999, "REV_AT_EPOCH": 521, "BSTAR": -0.00081458, "MEAN_MOTION_DOT": -0.00049971, "MEAN_MOTION_DDOT": 0}, "tle": {"line1": "1 66843U 25280Y   25361.16668980 -.00049971  00000+0 -81458-3 0  9995", "line2": "2 66843  70.0007 158.8459 0003382 273.1652 107.7414 15.52520774  5215"}}, "geometry": {"type": "Point", "coordinates": [162.7378678421672, 11.939946520635143]}}, {"type": "Feature", "properties": {"norad_id": 66844, "name": "STARLINK-36073", "group": "last-30-days", "lat": 14.014439746054594, "lon": 163.53517891526724, "alt_km": 401.276819207048, "timestamp": "2025-12-27T08:36:17.078495+00:00", "meta": {"OBJECT_NAME": "STARLINK-36073", "OBJECT_ID": "2025-280Z", "EPOCH": "2025-12-27T02:21:53.576928", "MEAN_MOTION": 15.54595499, "ECCENTRICITY": 0.0005892, "INCLINATION": 70.0006, "RA_OF_ASC_NODE": 159.0337, "ARG_OF_PERICENTER": 296.8217, "MEAN_ANOMALY": 63.2368, "EPHEMERIS_TYPE": 0, "CLASSIFICATION_TYPE": "U", "NORAD_CAT_ID": 66844, "ELEMENT_SET_NO": 999, "REV_AT_EPOCH": 513, "BSTAR": 0.017679, "MEAN_MOTION_DOT": 0.01296652, "MEAN_MOTION_DDOT": 0}, "tle": {"line1": "1 66844U 25280Z   25361.09853677  .01296652  00000+0  17679-1 0  9998", "line2": "2 66844  70.0006 159.0337 0005892 296.8217  63.2368 15.54595499  5133"}}, "geometry": {"type": "Point", "coordinates": [163.53517891526724, 14.014439746054594]}}, {"type": "Feature", "properties": {"norad_id": 66845, "name": "STARLINK-36068", "group": "last-30-days", "lat": 17.36018439859625, "lon": 164.8515754002649, "alt_km": 409.6666362118367, "timestamp": "2025-12-27T08:36:17.078506+00:00", "meta": {"OBJECT_NAME": "STARLINK-36068", "OBJECT_ID": "2025-280AA", "EPOCH": "2025-12-27T03:53:11.311872", "MEAN_MOTION": 15.5256967, "ECCENTRICITY": 0.0003372, "INCLINATION": 70.0009, "RA_OF_ASC_NODE": 158.852, "ARG_OF_PERICENTER": 273.055, "MEAN_ANOMALY": 87.0251, "EPHEMERIS_TYPE": 0, "CLASSIFICATION_TYPE": "U", "NORAD_CAT_ID": 66845, "ELEMENT_SET_NO": 999, "REV_AT_EPOCH": 517, "BSTAR": 0.0021463, "MEAN_MOTION_DOT": 0.00134372, "MEAN_MOTION_DDOT": 0}, "tle": {"line1": "1 66845U 25280AA  25361.16193648  .00134372  00000+0  21463-2 0  9998", "line2": "2 66845  70.0009 158.8520 0003372 273.0550  87.0251 15.52569670  5175"}}, "geometry": {"type": "Point", "coordinates": [164.8515754002649, 17.36018439859625]}}, {"type": "Feature", "properties": {"norad_id": 66846, "name": "STARLINK-36055", "group": "last-30-days", "lat": 17.611424838490375, "lon": 164.95293493821382, "alt_km": 400.49342615122714, "timestamp": "2025-12-27T08:36:17.078517+00:00", "meta": {"OBJECT_NAME": "STARLINK-36055", "OBJECT_ID": "2025-280AB", "EPOCH": "2025-12-27T02:20:54.102624", "MEAN_MOTION": 15.54614248, "ECCENTRICITY": 0.0005705, "INCLINATION": 70.0008, "RA_OF_ASC_NODE": 159.03, "ARG_OF_PERICENTER": 306.391, "MEAN_ANOMALY": 53.6751, "EPHEMERIS_TYPE": 0, "CLASSIFICATION_TYPE": "U", "NORAD_CAT_ID": 66846, "ELEMENT_SET_NO": 999, "REV_AT_EPOCH": 516, "BSTAR": 0.015937, "MEAN_MOTION_DOT": 0.01156943, "MEAN_MOTION_DDOT": 0}, "tle": {"line1": "1 66846U 25280AB  25361.09784841  .01156943  00000+0  15937-1 0  9999", "line2": "2 66846  70.0008 159.0300 0005705 306.3910  53.6751 15.54614248  5163"}}, "geometry": {"type": "Point", "coordinates": [164.95293493821382, 17.611424838490375]}}, {"type": "Feature", "properties": {"norad_id": 66847, "name": "STARLINK-36061", "group": "last-30-days", "lat": 15.550405024129727, "lon": 164.13348374874093, "alt_km": 410.00231648479075, "timestamp": "2025-12-27T08:36:17.078526+00:00", "meta": {"OBJECT_NAME": "STARLINK-36061", "OBJECT_ID": "2025-280AC", "EPOCH": "2025-12-27T04:00:01.998720", "MEAN_MOTION": 15.52812287, "ECCENTRICITY": 0.0003529, "INCLINATION": 70.0011, "RA_OF_ASC_NODE": 158.8419, "ARG_OF_PERICENTER": 281.6757, "MEAN_ANOMALY": 102.9979, "EPHEMERIS_TYPE": 0, "CLASSIFICATION_TYPE": "U", "NORAD_CAT_ID": 66847, "ELEMENT_SET_NO": 999, "REV_AT_EPOCH": 516, "BSTAR": -0.014782, "MEAN_MOTION_DOT": -0.00841012, "MEAN_MOTION_DDOT": 0}, "tle": {"line1": "1 66847U 25280AC  25361.16668980 -.00841012  00000+0 -14782-1 0  9999", "line2": "2 66847  70.0011 158.8419 0003529 281.6757 102.9979 15.52812287  5163"}}, "geometry": {"type": "Point", "coordinates": [164.13348374874093, 15.550405024129727]}}, {"type": "Feature", "properties": {"norad_id": 66848, "name": "STARLINK-36091", "group": "last-30-days", "lat": 13.998461991934965, "lon": -161.34703952776056, "alt_km": 413.05246888471993, "timestamp": "2025-12-27T08:36:17.078536+00:00", "meta": {"OBJECT_NAME": "STARLINK-36091", "OBJECT_ID": "2025-281A", "EPOCH": "2025-12-27T04:00:01.998720", "MEAN_MOTION": 15.50577058, "ECCENTRICITY": 0.0001046, "INCLINATION": 43.0002, "RA_OF_ASC_NODE": 35.2927, "ARG_OF_PERICENTER": 263.0991, "MEAN_ANOMALY": 263.9017, "EPHEMERIS_TYPE": 0, "CLASSIFICATION_TYPE": "U", "NORAD_CAT_ID": 66848, "ELEMENT_SET_NO": 999, "REV_AT_EPOCH": 370, "BSTAR": -0.00075452, "MEAN_MOTION_DOT": -0.00044351, "MEAN_MOTION_DDOT": 0}, "tle": {"line1": "1 66848U 25281A   25361.16668980 -.00044351  00000+0 -75452-3 0  9995", "line2": "2 66848  43.0002  35.2927 0001046 263.0991 263.9017 15.50577058  3703"}}, "geometry": {"type": "Point", "coordinates": [-161.34703952776056, 13.998461991934965]}}, {"type": "Feature", "properties": {"norad_id": 66849, "name": "STARLINK-36102", "group": "last-30-days", "lat": 12.735711149757698, "lon": -159.8715910008002, "alt_km": 413.1448609963045, "timestamp": "2025-12-27T08:36:17.078546+00:00", "meta": {"OBJECT_NAME": "STARLINK-36102", "OBJECT_ID": "2025-281B", "EPOCH": "2025-12-27T04:00:01.998720", "MEAN_MOTION": 15.5057289, "ECCENTRICITY": 0.0001056, "INCLINATION": 43.0003, "RA_OF_ASC_NODE": 35.2874, "ARG_OF_PERICENTER": 256.4498, "MEAN_ANOMALY": 272.4679, "EPHEMERIS_TYPE": 0, "CLASSIFICATION_TYPE": "U", "NORAD_CAT_ID": 66849, "ELEMENT_SET_NO": 999, "REV_AT_EPOCH": 370, "BSTAR": -0.00062817, "MEAN_MOTION_DOT": -0.0003701, "MEAN_MOTION_DDOT": 0}, "tle": {"line1": "1 66849U 25281B   25361.16668980 -.00037010  00000+0 -62817-3 0  9991", "line2": "2 66849  43.0003  35.2874 0001056 256.4498 272.4679 15.50572890  3703"}}, "geometry": {"type": "Point", "coordinates": [-159.8715910008002, 12.735711149757698]}}]}